1 45052U 20006J   23053.55828482  .00000904  00000-0  79619-4 0  9998
2 45052  53.0531 234.6799 0001110  87.8429 272.2687 15.06389935168981
1 45052U 20006J   23053.89001672  .00002444  00000-0  18289-3 0  9995
2 45052  53.0532 233.1902 0001098  90.6763 269.4352 15.06398800169035
1 45052U 20006J   23054.48713348  .00006389  00000-0  44727-3 0  9999
2 45052  53.0530 230.5092 0001100  93.6785 266.4330 15.06410035169123
1 45052U 20006J   23054.88521044  .00012673  00000-0  86766-3 0  9995
2 45052  53.0531 228.7215 0001118  91.7355 268.3762 15.06421800169189
1 45052U 20006J   23055.48233904 -.00002312  00000-0 -13639-3 0  9997
2 45052  53.0530 226.0423 0001186  62.7561 297.3548 15.06392130169279
1 45052U 20006J   23055.88042423 -.00000632  00000-0 -23537-4 0  9997
2 45052  53.0533 224.2548 0001119  69.1019 291.0089 15.06389575169332
1 45052U 20006J   23056.87562736  .00010194  00000-0  70214-3 0  9996
2 45052  53.0537 219.7874 0001148  62.8463 297.2642 15.06406989169480
1 45052U 20006J   23057.14101996  .00001681  00000-0  13176-3 0  9999
2 45052  53.0545 218.5944 0001524  79.2727 280.8433 15.06389340169529
1 45052U 20006J   23057.87083190  .00011629  00000-0  79806-3 0  9999
2 45052  53.0535 215.3197 0001170  71.8563 288.2553 15.06409492169634
1 45052U 20006J   23058.40160784  .00015203  00000-0  10370-2 0  9996
2 45052  53.0537 212.9370 0001500  83.1533 276.9627 15.06412130169710
1 45052U 20006J   23058.60064585  .00016972  00000-0  11550-2 0  9995
2 45052  53.0525 212.0431 0001360  88.6653 271.4492 15.06417597169748
1 45052U 20006J   23059.59584493  .00001480  00000-0  11819-3 0  9996
2 45052  53.0533 207.5759 0000919  94.7258 265.3836 15.06401546169894
1 45052U 20006J   23059.72854045  .00019810  00000-0  13451-2 0  9993
2 45052  53.0528 206.9806 0001047  92.9135 267.1974 15.06398472169910
1 45052U 20006J   23060.59105762  .00002641  00000-0  19619-3 0  9992
2 45052  53.0521 203.1095 0001204 101.5370 258.5754 15.06387020170048
1 45052U 20006J   23061.78530227  .00011184  00000-0  76831-3 0  9993
2 45052  53.0527 197.7466 0001291  99.7200 260.3935 15.06408683170221
1 45052U 20006J   23062.51511249  .00007454  00000-0  51855-3 0  9992
2 45052  53.0536 194.4677 0001333 108.5054 251.6080 15.06413875170674
1 45052U 20006J   23063.37762334  .00000209  00000-0  32932-4 0  9997
2 45052  53.0529 190.6001 0001927  88.0269 272.0940 15.06400969170463
1 45052U 20006J   23063.84204390  .00001475  00000-0  11787-3 0  9992
2 45052  53.0542 188.5106 0001380 130.1748 229.9362 15.06408713170536
1 45052U 20006J   23064.37283215 -.00001293  00000-0 -67962-4 0  9991
2 45052  53.0551 186.1326 0001379  92.4481 267.6666 15.06387383170610
1 45052U 20006J   23065.69976004  .00007356  00000-0  51204-3 0  9997
2 45052  53.0542 180.1754 0001009 100.4140 259.6962 15.06412286170814
1 45052U 20006J   23066.69496187  .00010469  00000-0  72031-3 0  9997
2 45052  53.0545 175.7083 0001245  87.1721 272.9410 15.06418701170960
1 45052U 20006J   23067.69017071  .00007203  00000-0  50192-3 0  9995
2 45052  53.0548 171.2418 0001883  89.7937 270.3268 15.06403480171110
1 45052U 20006J   23068.68531728  .00031402  00000-0  21120-2 0  9991
2 45052  53.0545 166.7691 0001626 112.8641 247.2520 15.06499449171264
1 45052U 20006J   23069.54792522 -.00065203  00000-0 -44216-2 0  9997
2 45052  53.0538 162.9019 0001416  82.0392 278.0758 15.06208115171393
1 45052U 20006J   23070.41049453  .00113936  00000-0  75498-2 0  9994
2 45052  53.0539 159.0269 0002421 113.5995 246.5248 15.06377656171520
1 45052U 20006J   23070.87490776  .00002835  00000-0  20924-3 0  9992
2 45052  53.0540 156.9432 0002123  87.3382 272.7850 15.06385284171590
1 45052U 20006J   23071.27297971 -.00017649  00000-0 -11685-2 0  9993
2 45052  53.0543 155.1600 0001669  95.6527 264.4652 15.06410205171655
1 45052U 20006J   23071.60471201  .00008539  00000-0  59119-3 0  9991
2 45052  53.0537 153.6707 0002189  99.6883 260.4353 15.06417717171701
1 45052U 20006J   23072.20181948  .00031211  00000-0  21016-2 0  9991
2 45052  53.0536 150.9886 0002100  88.8724 271.2506 15.06458464171798
1 45052U 20006J   23073.59508490  .00029598  00000-0  19971-2 0  9991
2 45052  53.0533 144.7324 0002095  70.4386 289.6829 15.06408071172002
1 45052U 20006J   23074.45756441  .00046370  00000-0  31040-2 0  9996
2 45052  53.0530 140.8617 0002334  71.9158 288.2085 15.06489061172131
1 45052U 20006J   23075.38642691  .00016226  00000-0  11071-2 0  9999
2 45052  53.0535 136.6915 0001384  70.5034 289.6104 15.06352235172276
1 45052U 20006J   23075.85087437  .00028779  00000-0  19453-2 0  9990
2 45052  53.0537 134.6070 0001494  81.0136 279.1022 15.06357582172341
1 45052U 20006J   23076.44800671  .00020703  00000-0  14054-2 0  9990
2 45052  53.0541 131.9270 0001489  82.6164 277.4994 15.06380855172438
1 45052U 20006J   23076.84608883  .00020463  00000-0  13887-2 0  9991
2 45052  53.0539 130.1403 0001511  84.5633 275.5528 15.06399797172495
1 45052U 20006J   23077.84127786  .00018898  00000-0  12829-2 0  9994
2 45052  53.0531 125.6724 0001578  87.3516 272.7654 15.06437291172644
1 45052U 20006J   23078.43837814  .00018666  00000-0  12666-2 0  9992
2 45052  53.0530 122.9918 0001632  86.5515 273.5661 15.06461546172736
1 45052U 20006J   23078.83645488  .00006953  00000-0  48473-3 0  9992
2 45052  53.0530 121.2044 0001773  92.4875 267.6317 15.06434909172790
1 45052U 20006J   23079.36723416  .00016455  00000-0  11212-2 0  9997
2 45052  53.0529 118.8214 0001763 102.9377 257.1809 15.06393046172877
1 45052U 20006J   23079.83166247  .00023004  00000-0  15579-2 0  9990
2 45052  53.0530 116.7361 0001756 103.5655 256.5530 15.06407474172940
1 45052U 20006J   23080.36242995  .00020184  00000-0  13690-2 0  9993
2 45052  53.0532 114.3534 0001784 102.6749 257.4440 15.06428042173027
1 45052U 20006J   23081.49033691  .00001641  00000-0  12905-3 0  9995
2 45052  53.0540 109.2888 0001283  93.3235 266.7901 15.06387407173531
1 45052U 20006J   23082.48553533  .00012092  00000-0  82896-3 0  9995
2 45052  53.0533 104.8208 0001280  95.2070 264.9065 15.06415220173340
1 45052U 20006J   23083.28169379  .00030695  00000-0  20683-2 0  9999
2 45052  53.0535 101.2454 0001884 121.7651 238.3522 15.06440794173466
1 45052U 20006J   23083.74611234  .00024530  00000-0  16580-2 0  9994
2 45052  53.0535  99.1617 0001476 107.4857 252.6293 15.06444456173539
1 45052U 20006J   23084.74131273 -.00009623  00000-0 -62818-3 0  9999
2 45052  53.0541  94.6958 0001405 103.7262 256.3883 15.06389266173684
1 45052U 20006J   23085.73653127  .00012283  00000-0  84233-3 0  9995
2 45052  53.0550  90.2273 0001535  93.5113 266.6052 15.06386988173838
1 45052U 20006J   23086.26730341  .00016554  00000-0  11273-2 0  9996
2 45052  53.0544  87.8441 0001470  94.9253 265.1903 15.06410033173915
1 45052U 20006J   23086.73173478  .00006964  00000-0  48595-3 0  9992
2 45052  53.0541  85.7591 0001493  91.2931 268.8229 15.06400252173983
1 45052U 20006J   23087.39520926  .00010178  00000-0  70133-3 0  9994
2 45052  53.0549  82.7810 0001243  96.7073 263.4058 15.06393850174080
1 45052U 20006J   23088.32405660  .00024844  00000-0  16793-2 0  9991
2 45052  53.0550  78.6122 0001164  94.6892 265.4230 15.06435791174221
1 45052U 20006J   23088.65579719  .00009981  00000-0  68787-3 0  9990
2 45052  53.0558  77.1248 0002069 101.9022 258.2199 15.06406189174272
1 45052U 20006J   23089.38561721  .00028274  00000-0  19097-2 0  9990
2 45052  53.0550  73.8473 0001349 117.3352 242.7774 15.06395020174384
1 45052U 20006J   23091.37602168  .00026021  00000-0  17601-2 0  9990
2 45052  53.0547  64.9119 0001231  91.8734 268.2396 15.06384309174682
1 45052U 20006J   23092.30486842  .00031714  00000-0  21362-2 0  9997
2 45052  53.0545  60.7416 0001184 105.2654 254.8466 15.06438134175161
1 45052U 20006J   23093.30008477  .00021284  00000-0  14436-2 0  9997
2 45052  53.0554  56.2738 0001126  86.0024 274.1093 15.06395562174977
1 45052U 20006J   23093.89720143  .00025063  00000-0  16944-2 0  9997
2 45052  53.0553  53.5928 0001136  88.4345 271.6774 15.06423721175068
1 45052U 20006J   23094.29527067  .00027099  00000-0  18287-2 0  9995
2 45052  53.0552  51.8074 0001240  87.7487 272.3644 15.06450336175128
1 45052U 20006J   23094.89240762  .00008406  00000-0  58283-3 0  9997
2 45052  53.0554  49.1259 0001460 113.9802 246.1340 15.06381900175214
1 45052U 20006J   23095.22414889  .00023552  00000-0  15958-2 0  9998
2 45052  53.0554  47.6372 0001242 120.1838 239.9274 15.06375120175268
1 45052U 20006J   23096.21934890  .00023244  00000-0  15731-2 0  9994
2 45052  53.0560  43.1697 0001276 120.0103 240.1013 15.06425805175415
1 45052U 20006J   23096.81647890  .00012369  00000-0  84787-3 0  9995
2 45052  53.0566  40.4885 0001931 106.3720 253.7481 15.06398048175507
1 45052U 20006J   23097.28091437  .00028595  00000-0  19316-2 0  9990
2 45052  53.0562  38.4048 0001249  98.0020 262.1111 15.06385482175572
1 45052U 20006J   23098.20975783  .00029103  00000-0  19624-2 0  9996
2 45052  53.0557  34.2352 0001133 112.6840 247.4269 15.06442023175714
1 45052U 20006J   23099.20496845  .00005829  00000-0  40990-3 0  9994
2 45052  53.0569  29.7675 0001334 101.5435 258.5704 15.06399596175863
1 45052U 20006J   23100.20016822  .00020345  00000-0  13798-2 0  9995
2 45052  53.0556  25.2988 0001315 102.2189 257.8947 15.06425962176016
1 45052U 20006J   23100.79729352  .00005054  00000-0  35791-3 0  9996
2 45052  53.0554  22.6209 0001488  90.7048 269.4112 15.06405014176443
1 45052U 20006J   23101.19537405  .00006126  00000-0  42974-3 0  9999
2 45052  53.0559  20.8319 0001321  97.7393 262.3746 15.06403874176162
1 45052U 20006J   23101.92517080  .00018038  00000-0  12253-2 0  9998
2 45052  53.0558  17.5560 0001157 106.7893 253.3223 15.06443214176279
1 45052U 20006J   23102.19054596  .00021542  00000-0  14580-2 0  9995
2 45052  53.0556  16.3652 0001128  90.6214 269.4904 15.06468676176657
1 45052U 20006J   23103.11942100  .00024285  00000-0  16445-2 0  9994
2 45052  53.0551  12.1951 0001116 144.5953 215.5110 15.06380426176459
